NORAD_CAT_ID,OBJECT_NAME,OBJECT_TYPE,EPOCH,MEAN_MOTION,ECCENTRICITY,INCLINATION,RA_OF_ASC_NODE,ARG_OF_PERICENTER,MEAN_ANOMALY,BSTAR,MEAN_MOTION_DOT,MEAN_MOTION_DDOT,TLE_LINE0,TLE_LINE1,TLE_LINE2,SEMIMAJOR_AXIS,PERIOD,APOGEE,PERIGEE,DECAYED
51149.0,STARLINK-3360,PAYLOAD,2022-08-07 13:53:43,15.08846079,0.0001962,53.217,70.4317,80.9617,279.1598,0.00012343,1.677e-05,0.0,0 STARLINK-3360,1 51149U 22005AX  22219.57897421  .00001677  00000-0  12343-3 0  9995,2 51149  53.2170  70.4317 0001962  80.9617 279.1598 15.08846079 31925,6917.861999999999,95.437,541.0840000000002,538.37,0.0
51149.0,STARLINK-3360,PAYLOAD,2022-08-07 21:50:40,15.08824458,0.0002276999999999,53.2173,68.9447,91.377,268.7484,-0.00023431,-4.014e-05,0.0,0 STARLINK-3360,1 51149U 22005AX  22219.91019384 -.00004014  00000-0 -23431-3 0  9997,2 51149  53.2173  68.9447 0002277  91.3770 268.7484 15.08824458 30867,6917.928000000001,95.439,541.368,538.2180000000002,0.0
51149.0,STARLINK-3360,PAYLOAD,2022-08-07 23:26:03,15.08829424,0.0002416,53.2169,68.6476,84.9775,275.1493,-0.00013467,-2.43e-05,0.0,0 STARLINK-3360,1 51149U 22005AX  22219.97642944 -.00002430  00000-0 -13467-3 0  9995,2 51149  53.2169  68.6476 0002416  84.9775 275.1493 15.08829424 31983,6917.913000000001,95.438,541.4490000000002,538.106,0.0
51149.0,STARLINK-3360,PAYLOAD,2022-08-08 07:22:56,15.08859844,0.0001781999999999,53.2169,67.1605,81.9752,278.1442,0.00050095,7.698e-05,0.0,0 STARLINK-3360,1 51149U 22005AX  22220.30759951  .00007698  00000-0  50095-3 0  9998,2 51149  53.2169  67.1605 0001782  81.9752 278.1442 15.08859844 32031,6917.82,95.436,540.9169999999998,538.452,0.0
51149.0,STARLINK-3360,PAYLOAD,2022-08-08 13:44:30,15.08847818,0.0002002,53.2162,65.9715,78.5414,281.5803,0.00022033,3.221e-05,0.0,0 STARLINK-3360,1 51149U 22005AX  22220.57257514  .00003221  00000-0  22033-3 0  9994,2 51149  53.2162  65.9715 0002002  78.5414 281.5803 15.08847818 30962,6917.856,95.437,541.106,538.337,0.0
51149.0,STARLINK-3360,PAYLOAD,2022-08-08 20:06:02,15.08853767,0.0001921,53.2163,64.7817,77.4072,282.7135,0.00028571,4.264e-05,0.0,0 STARLINK-3360,1 51149U 22005AX  22220.83753073  .00004264  00000-0  28571-3 0  9995,2 51149  53.2163  64.7817 0001921  77.4072 282.7135 15.08853767 32110,6917.8380000000025,95.437,541.0319999999998,538.374,0.0
51149.0,STARLINK-3360,PAYLOAD,2022-08-09 13:35:16,15.08850478,0.0001945,53.2162,61.5107,82.8151,277.3063,0.00013099,1.798e-05,0.0,0 STARLINK-3360,1 51149U 22005AX  22221.56616813  .00001798  00000-0  13099-3 0  9994,2 51149  53.2162  61.5107 0001945  82.8151 277.3063 15.08850478 32228,6917.848000000001,95.437,541.059,538.368,0.0
51149.0,STARLINK-3360,PAYLOAD,2022-08-10 00:42:57,15.08886342,5.400000000000001e-05,53.2175,59.4321,59.5769,300.5277,0.00079531,0.00012408,0.0,0 STARLINK-3360,1 51149U 22005AX  22222.02982825  .00012408  00000-0  79531-3 0  9998,2 51149  53.2175  59.4321 0000540  59.5769 300.5277 15.08886342 32294,6917.739000000001,95.435,539.977,539.23,0.0
51149.0,STARLINK-3360,PAYLOAD,2022-08-10 13:26:05,15.08828601,0.0001863,53.2165,57.0502,80.0479,280.0723,-0.00014877,-2.654e-05,0.0,0 STARLINK-3360,1 51149U 22005AX  22222.55978178 -.00002654  00000-0 -14877-3 0  9998,2 51149  53.2165  57.0502 0001863  80.0479 280.0723 15.08828601 32375,6917.915,95.438,541.069,538.491,0.0
51149.0,STARLINK-3360,PAYLOAD,2022-08-10 16:36:52,15.08817401,0.0001563,53.2164,56.4555,78.1083,282.0084,6.9324e-05,8.15e-06,0.0,0 STARLINK-3360,1 51149U 22005AX  22222.69226946  .00000815  00000-0  69324-4 0  9995,2 51149  53.2164  56.4555 0001563  78.1083 282.0084 15.08817401 32391,6917.949000000001,95.439,540.896,538.7330000000002,0.0
51149.0,STARLINK-3360,PAYLOAD,2022-08-10 19:47:38,15.0882999,0.0001792,53.2173,55.8608,85.8532,274.2665,-0.00011399,-2.101e-05,0.0,0 STARLINK-3360,1 51149U 22005AX  22222.82474697 -.00002101  00000-0 -11399-3 0  9998,2 51149  53.2173  55.8608 0001792  85.8532 274.2665 15.08829990 31305,6917.911,95.438,541.016,538.536,0.0
51149.0,STARLINK-3360,PAYLOAD,2022-08-11 00:33:47,15.08831171,0.0001694,53.2171,54.9686,81.9594,278.159,-9.6156e-05,-1.818e-05,0.0,0 STARLINK-3360,1 51149U 22005AX  22223.02346662 -.00001818  00000-0 -96156-4 0  9990,2 51149  53.2171  54.9686 0001694  81.9594 278.1590 15.08831171 32445,6917.906999999997,95.438,540.944,538.6,0.0
51149.0,STARLINK-3360,PAYLOAD,2022-08-11 05:19:57,15.08831973,0.0001724,53.2172,54.0765,81.1082,279.0106,-0.00011367,-2.096e-05,0.0,0 STARLINK-3360,1 51149U 22005AX  22223.22218777 -.00002096  00000-0 -11367-3 0  9996,2 51149  53.2172  54.0765 0001724  81.1082 279.0106 15.08831973 31366,6917.905,95.438,540.9630000000002,538.577,0.0
51149.0,STARLINK-3360,PAYLOAD,2022-08-12 13:07:39,15.08834281,0.0001595999999999,53.2173,48.1291,79.2555,280.8616,0.00019121,2.756e-05,0.0,0 STARLINK-3360,1 51149U 22005AX  22224.54698557  .00002756  00000-0  19121-3 0  9997,2 51149  53.2173  48.1291 0001596  79.2555 280.8616 15.08834281 31568,6917.898,95.438,540.867,538.659,0.0
51149.0,STARLINK-3360,PAYLOAD,2022-08-12 19:29:11,15.08840475,0.0001612,53.2173,46.9397,79.655,280.4624,0.00022745,3.334e-05,0.0,0 STARLINK-3360,1 51149U 22005AX  22224.81194285  .00003334  00000-0  22745-3 0  9995,2 51149  53.2173  46.9397 0001612  79.6550 280.4624 15.08840475 31601,6917.879,95.438,540.859,538.629,0.0
51149.0,STARLINK-3360,PAYLOAD,2022-08-13 11:23:03,15.088389800000002,0.0001661,53.2174,43.9661,79.2727,280.8452,0.00013832,1.914e-05,0.0,0 STARLINK-3360,1 51149U 22005AX  22225.47434727  .00001914  00000-0  13832-3 0  9995,2 51149  53.2174  43.9661 0001661  79.2727 280.8452 15.08838980 31701,6917.884,95.438,540.898,538.599,0.0
51149.0,STARLINK-3360,PAYLOAD,2022-08-13 20:55:23,15.0883082,0.0001633,53.2178,42.1825,78.104,282.0135,2.7622000000000004e-06,-2.44e-06,0.0,0 STARLINK-3360,1 51149U 22005AX  22225.87179659 -.00000244  00000-0  27622-5 0  9999,2 51149  53.2178  42.1825 0001633  78.1040 282.0135 15.08830820 31766,6917.908,95.438,540.903,538.644,0.0
51149.0,STARLINK-3360,PAYLOAD,2022-08-14 11:13:51,15.08836312,0.0001431,53.2178,39.5056,76.5884,283.5267,4.1485e-06,-2.22e-06,0.0,0 STARLINK-3360,1 51149U 22005AX  22226.46795391 -.00000222  00000-0  41485-5 0  9991,2 51149  53.2178  39.5056 0001431  76.5884 283.5267 15.08836312 31850,6917.892,95.438,540.747,538.7669999999998,0.0
51149.0,STARLINK-3360,PAYLOAD,2022-08-14 19:10:46,15.0884174,0.0001598,53.2178,38.0195,75.6334,284.4836,1.7714e-06,-2.6e-06,0.0,0 STARLINK-3360,1 51149U 22005AX  22226.79915141 -.00000260  00000-0  17714-5 0  9994,2 51149  53.2178  38.0195 0001598  75.6334 284.4836 15.08841740 33015,6917.875,95.437,540.846,538.635,0.0
51149.0,STARLINK-3360,PAYLOAD,2022-08-14 20:46:09,15.08843686,0.0001614,53.218,37.7222,77.0576,283.0596,2.0411e-05,3.7e-07,0.0,0 STARLINK-3360,1 51149U 22005AX  22226.86538965  .00000037  00000-0  20411-4 0  9995,2 51149  53.2180  37.7222 0001614  77.0576 283.0596 15.08843686 31914,6917.869000000002,95.437,540.851,538.618,0.0
51149.0,STARLINK-3360,PAYLOAD,2022-08-15 11:04:37,15.088459,0.0001512,53.2179,35.0455,76.9481,283.1679,0.00012099,1.638e-05,0.0,0 STARLINK-3360,1 51149U 22005AX  22227.46154463  .00001638  00000-0  12099-3 0  9999,2 51149  53.2179  35.0455 0001512  76.9481 283.1679 15.08845900 32006,6917.861999999999,95.437,540.773,538.681,0.0
51149.0,STARLINK-3360,PAYLOAD,2022-08-15 17:26:09,15.08848129,0.0001602,53.2179,33.8565,75.3059,284.8111,0.00012353,1.679e-05,0.0,0 STARLINK-3360,1 51149U 22005AX  22227.72650319  .00001679  00000-0  12353-3 0  9997,2 51149  53.2179  33.8565 0001602  75.3059 284.8111 15.08848129 33150,6917.856,95.437,540.8290000000002,538.612,0.0
51149.0,STARLINK-3360,PAYLOAD,2022-08-16 04:33:52,15.08835402,0.0001354,53.2173,31.7739,79.6406,280.4739,0.00015796,2.227e-05,0.0,0 STARLINK-3360,1 51149U 22005AX  22228.19019289  .00002227  00000-0  15796-3 0  9998,2 51149  53.2173  31.7739 0001354  79.6406 280.4739 15.08835402 32114,6917.894,95.438,540.696,538.823,0.0
51149.0,STARLINK-3360,PAYLOAD,2022-08-16 18:52:20,15.08846258,0.000171,53.217,29.1004,67.7797,292.3376,0.00014696,2.052e-05,0.0,0 STARLINK-3360,1 51149U 22005AX  22228.78634661  .00002052  00000-0  14696-3 0  9994,2 51149  53.2170  29.1004 0001710  67.7797 292.3376 15.08846258 33317,6917.861,95.437,540.909,538.543,0.0
51149.0,STARLINK-3360,PAYLOAD,2022-08-17 12:21:34,15.08856611,0.000147,53.2175,25.827,78.4962,281.6195,-0.00013182,-2.386e-05,0.0,0 STARLINK-3360,1 51149U 22005AX  22229.51498551 -.00002386  00000-0 -13182-3 0  9993,2 51149  53.2175  25.8270 0001470  78.4962 281.6195 15.08856611 32319,6917.83,95.437,540.712,538.678,0.0
51149.0,STARLINK-3360,PAYLOAD,2022-08-18 10:36:58,15.08843976,0.0001307,53.2176,21.6629,82.3622,277.7519,9.5218e-05,1.228e-05,0.0,0 STARLINK-3360,1 51149U 22005AX  22230.44234695  .00001228  00000-0  95218-4 0  9997,2 51149  53.2176  21.6629 0001307  82.3622 277.7519 15.08843976 32459,6917.868,95.437,540.637,538.8290000000002,0.0
51149.0,STARLINK-3360,PAYLOAD,2022-08-18 18:33:54,15.08852402,0.0001274,53.2175,20.1765,77.6792,282.4343,-3.3806e-05,-8.26e-06,0.0,0 STARLINK-3360,1 51149U 22005AX  22230.77354427 -.00000826  00000-0 -33806-4 0  9999,2 51149  53.2175  20.1765 0001274  77.6792 282.4343 15.08852402 33612,6917.842,95.437,540.589,538.826,0.0
51149.0,STARLINK-3360,PAYLOAD,2022-08-19 12:03:08,15.08848502,0.0001346,53.2169,16.9053,75.5516,284.5626,0.00014048,1.949e-05,0.0,0 STARLINK-3360,1 51149U 22005AX  22231.50218109  .00001949  00000-0  14048-3 0  9998,2 51149  53.2169  16.9053 0001346  75.5516 284.5626 15.08848502 32611,6917.854,95.437,540.651,538.788,0.0
51149.0,STARLINK-3360,PAYLOAD,2022-08-19 21:35:28,15.08831221,0.0001193999999999,53.2176,15.1208,69.7148,290.3972,-0.00011059,-2.047e-05,0.0,0 STARLINK-3360,1 51149U 22005AX  22231.89962991 -.00002047  00000-0 -11059-3 0  9996,2 51149  53.2176  15.1208 0001194  69.7148 290.3972 15.08831221 33787,6917.906999999997,95.438,540.5980000000002,538.946,0.0
